COSMOS 2497             
1 39762U 14028B   24071.56307519  .00000037  00000+0  19554-3 0  9998
2 39762  82.4446 268.4740 0020902  77.4264 282.9152 12.42876367444705
COSMOS 2498             
1 39763U 14028C   24071.51498502  .00000043  00000+0  24062-3 0  9994
2 39763  82.4408 267.3347 0021528  77.7240 282.6249 12.42935058444726
COSMOS 2499 (RS-47)     
1 39765U 14028E   24072.20872072  .00000028  00000+0  56024-4 0  9998
2 39765  82.4444  90.4510 0232354 142.9348 218.8060 12.82869616459201
SPROUT                  
1 39770U 14029E   24071.64023926  .00062038  00000+0  25543-2 0  9997
2 39770  98.0057 215.9744 0003246 190.3530 169.7639 15.23875689532695
HODOYOSHI-4             
1 40011U 14033B   24072.14109491  .00001576  00000+0  19544-3 0  9995
2 40011  97.5945 286.5967 0025946 156.3863 203.8549 14.83760686525976
UNISAT-6                
1 40012U 14033C   24071.47272907  .00003725  00000+0  50177-3 0  9999
2 40012  97.6915 238.0121 0052722 263.6292  95.8914 14.78804519523396
DEIMOS-2                
1 40013U 14033D   24072.18411686  .00002157  00000+0  23998-3 0  9997
2 40013  97.6943 321.7551 0001481 117.2329 242.9039 14.88149045527334
BUGSAT-1 (TITA)         
1 40014U 14033E   24072.15620863  .00004491  00000+0  33758-3 0  9992
2 40014  98.1403 108.9033 0038966  98.5545 262.0097 15.02528339531078
SAUDISAT 4              
1 40016U 14033G   24071.43772370  .00001142  00000+0  16700-3 0  9993
2 40016  97.6564 242.1475 0045856 245.7317 113.9100 14.76836305523774
APRIZESAT 9             
1 40018U 14033J   24071.35596528  .00000833  00000+0  13698-3 0  9994
2 40018  97.7862 221.0708 0068911 342.2952  17.5855 14.71598627521689
BRITE-CA1 (TORONTO)     
1 40020U 14033L   24071.97086706  .00001234  00000+0  20760-3 0  9991
2 40020  97.8598 212.6380 0084579  43.1920 317.5879 14.68984285520707
DUCHIFAT-1              
1 40021U 14033M   24071.46684126  .00010888  00000+0  79059-3 0  9996
2 40021  98.0858  50.5781 0016159  73.8091 286.4910 15.03966952529421
NANOSATC-BR1            
1 40024U 14033Q   24071.48254543  .00008255  00000+0  65415-3 0  9993
2 40024  98.0589  39.7956 0011440 130.9639 229.2576 15.00786287528586
QB50P1                  
1 40025U 14033R   24071.41102573  .00006671  00000+0  57294-3 0  9998
2 40025  98.0312  29.1685 0012008 119.5366 240.7054 14.97746181528239
DTUSAT-2                
1 40030U 14033W   24071.59611389  .00006611  00000+0  58477-3 0  9991
2 40030  97.9981  21.6564 0011896 115.9088 244.3360 14.96597414528099
FLOCK 1C-4              
1 40031U 14033X   24071.66906047  .00017531  00000+0  12791-2 0  9999
2 40031  98.0694  43.6612 0008988  88.7624 271.4630 15.03736908529041
QB50P2                  
1 40032U 14033Y   24071.43412986  .00005233  00000+0  46361-3 0  9996
2 40032  97.9983  21.5050 0011538 115.7734 244.4679 14.96647340528044
PERSEUS-M1              
1 40039U 14033AF  24072.20746005  .00002557  00000+0  27370-3 0  9996
2 40039  97.9046 359.0644 0013950 148.4013 211.8045 14.89544281527756
POLYITAN-1              
1 40042U 14033AJ  24071.43581113  .00009520  00000+0  77322-3 0  9990
2 40042  98.0440  32.0540 0015957 105.0955 255.2034 14.99743901528174
TIGRISAT                
1 40043U 14033AK  24071.68613758  .00002873  00000+0  39440-3 0  9992
2 40043  97.6836 238.7415 0055077 260.8075  98.6904 14.78087512523351
AISAT                   
1 40054U 14034B   24072.15015094  .00005276  00000+0  59288-3 0  9999
2 40054  98.3491 282.4969 0011224  76.7538 283.4928 14.87149595523385
CANX-4                  
1 40055U 14034C   24072.10033318  .00001642  00000+0  23735-3 0  9995
2 40055  98.3965 262.8317 0014246 137.7059 222.5251 14.77596216522246
CANX-5                  
1 40056U 14034D   24071.49661514  .00001732  00000+0  24975-3 0  9999
2 40056  98.3967 262.2018 0014219 139.7290 220.4975 14.77602454512937
VELOX-I                 
1 40057U 14034E   24072.17315846  .00003689  00000+0  44215-3 0  9992
2 40057  98.3535 282.6912 0010281  94.9453 265.2934 14.84704818523306
GONETS-M 10             
1 40063U 14036C   24072.15198384  .00000032  00000+0  15700-3 0  9991
2 40063  82.5056 101.3405 0022644 144.1205 216.1400 12.42909399439705
METEOR-M 2              
1 40069U 14037A   24072.20878384  .00000170  00000+0  97908-4 0  9993
2 40069  98.4348  70.7968 0004565 283.7161  76.3508 14.20906484501858
DX1                     
1 40071U 14037C   24072.16550760  .00001999  00000+0  24557-3 0  9995
2 40071  98.3392 340.2715 0009396  78.4677 281.7590 14.84243954523248
UKUBE-1                 
1 40074U 14037F   24072.01589755  .00006212  00000+0  61996-3 0  9999
2 40074  98.3418 356.1457 0005442  48.1613 312.0068 14.91909829524282
GAOFEN-2                
1 40118U 14049A   24072.17154092  .00001332  00000+0  17917-3 0  9992
2 40118  97.6751 127.0193 0006223  60.8211 299.3624 14.80807902516876
BRITE-PL2 (HEWELIUSZ)   
1 40119U 14049B   24072.21542503  .00002518  00000+0  27908-3 0  9994
2 40119  97.8776 172.4136 0015310 327.2795  32.7471 14.88123018518240
HODOYOSHI-1             
1 40299U 14070B   24072.18507967  .00017410  00000+0  39925-3 0  9997
2 40299  97.1529 133.7902 0008885  37.8977 322.2895 15.42758902520140
CBERS 4                 
1 40336U 14079A   24072.16201567  .00000187  00000+0  79895-4 0  9997
2 40336  98.4096 142.9871 0000514 117.6845 242.4394 14.35506800485320
SMAP                    
1 40376U 15003A   24071.86576680  .00000758  00000+0  15587-3 0  9997
2 40376  98.1309  79.6244 0001366  99.0533 261.0823 14.63366012486629
CP10 (EXOCUBE)          
1 40380U 15003E   24072.21423211  .00071778  00000+0  86292-3 0  9994
2 40380  99.1039  70.0633 0060700  94.7355 266.0831 15.58341752504212
GONETS-M 11             
1 40552U 15020A   24072.13683232  .00000032  00000+0  16043-3 0  9998
2 40552  82.4897 186.2761 0015805  11.1808 348.9620 12.42895357406036
GONETS-M 12             
1 40553U 15020B   24072.11114424  .00000031  00000+0  15143-3 0  9998
2 40553  82.4932 187.1819 0014076 355.2706   4.8239 12.42876060406022
GONETS-M 13             
1 40554U 15020C   24071.84150394  .00000033  00000+0  16732-3 0  9991
2 40554  82.4892 186.2294 0012554 340.5595  19.5004 12.42904890406001
DMC3-FM1                
1 40715U 15032A   24072.17486847  .00000905  00000+0  11659-3 0  9996
2 40715  97.7652 313.8712 0004381 245.7351 114.3405 14.83394336467192
DMC3-FM2                
1 40716U 15032B   24072.19802667  .00000908  00000+0  11692-3 0  9991
2 40716  97.7703 314.8992 0006275 252.8193 107.2334 14.83397218467192
DMC3-FM3                
1 40717U 15032C   24072.22005391  .00000706  00000+0  92353-4 0  9995
2 40717  97.7750 316.1444 0007760 249.2313 110.8070 14.83382832467201
CARBONITE 1 (CBNT-1)    
1 40718U 15032D   24072.13343036  .00001993  00000+0  28303-3 0  9999
2 40718  97.6667 276.9754 0016882 117.7608 242.5318 14.77902206466928
DEORBITSAIL             
1 40719U 15032E   24071.33388397  .00004904  00000+0  57974-3 0  9991
2 40719  97.7007 297.9679 0015018  97.3335 262.9588 14.85000437467567
2015-049A               
1 40899U 15049A   24072.17938862  .00017657  00000+0  51893-3 0  9992
2 40899  97.4737  86.4792 0007616 306.5904  53.4637 15.35149964469736
KAITUO 1A               
1 40904U 15049F   24072.22010698  .00026164  00000+0  67992-3 0  9993
2 40904  97.4930  86.2331 0006486 311.6918  48.3771 15.38906276469496
2015-049G               
1 40905U 15049G   24072.16204343  .00009533  00000+0  37264-3 0  9999
2 40905  97.5267  80.4081 0011010 332.2475  27.8174 15.26022563468904
XW-2C                   
1 40906U 15049H   24072.20194807  .00019744  00000+0  55760-3 0  9994
2 40906  97.4870  86.9131 0007071 294.3073  65.7432 15.36379917469554
XW-2D                   
1 40907U 15049J   24072.20704878  .00027230  00000+0  65834-3 0  9992
2 40907  97.4824  88.6076 0005378 278.8246  81.2391 15.41108219469725
LILACSAT-2              
1 40908U 15049K   24072.16412382  .00008256  00000+0  34200-3 0  9994
2 40908  97.5283  80.3162 0011885 339.5148  20.5610 15.24114178468706
XW-2E                   
1 40909U 15049L   24072.12913328  .00407123  63497-4  14085-2 0  9995
2 40909  97.4161 101.2908 0005417 176.5792 183.5519 15.89455605470907
XW-2F                   
1 40910U 15049M   24072.12694124  .00343405  00000+0  13809-2 0  9998
2 40910  97.4275 100.4301 0005486 177.1679 182.9624 15.85559908470615
XW-2B                   
1 40911U 15049N   24072.06503132  .00028091  00000+0  69024-3 0  9992
2 40911  97.4800  88.6831 0005532 282.2016  77.8610 15.40609930469572
COSMOS 2507             
1 40920U 15050A   24072.13863766  .00000009  00000+0 -85387-5 0  9996
2 40920  82.4891 234.5176 0009024 356.5763   3.5253 12.42884240384140
COSMOS 2508             
1 40921U 15050B   24072.16466711  .00000005  00000+0 -37164-4 0  9994
2 40921  82.4846 233.3173 0013970  30.3052 329.8833 12.42894848384130
COSMOS 2509             
1 40922U 15050C   24071.86969107  .00000019  00000+0  66273-4 0  9995
2 40922  82.4847 233.5839 0016342  44.3765 315.8621 12.42875714384103
LQSAT                   
1 40958U 15057A   24072.16956162  .00000938  00000+0  14782-3 0  9999
2 40958  97.6775  97.4171 0019148  76.0687 284.2651 14.74479421453312
LINGQIAO VIDEO A        
1 40959U 15057B   24072.19228973  .00000950  00000+0  14854-3 0  9999
2 40959  97.6770  98.5743 0019028  75.6885 284.6436 14.74795971453391
LINGQIAO VIDEO B        
1 40960U 15057C   24072.16158974  .00001058  00000+0  16414-3 0  9995
2 40960  97.6784  99.6668 0019168  76.0845 284.2495 14.74925224453423
JILIN-1                 
1 40961U 15057D   24072.21575427  .00000941  00000+0  14475-3 0  9993
2 40961  97.6827 102.4376 0019076  73.3226 287.0077 14.75537139453536
ELEKTRO-L 2             
1 41105U 15074A   24071.37189321 -.00000124  00000+0  00000+0 0  9992
2 41105   4.5914  80.6301 0002572 213.0413 355.2434  1.00271169 30202
